STARLINK-2426
1 17836C 21018BB  21326.17866161  .00005715  00000-0  38289-3 0  3265
2 17836  53.0562  92.9254 0001478  69.6371 354.7372 15.06395028    15
